NORAD_CAT_ID,OBJECT_NAME,OBJECT_TYPE,EPOCH,MEAN_MOTION,ECCENTRICITY,INCLINATION,RA_OF_ASC_NODE,ARG_OF_PERICENTER,MEAN_ANOMALY,BSTAR,MEAN_MOTION_DOT,MEAN_MOTION_DDOT,TLE_LINE0,TLE_LINE1,TLE_LINE2,SEMIMAJOR_AXIS,PERIOD,APOGEE,PERIGEE,DECAYED
54071.0,STARLINK-5168,PAYLOAD,2024-05-02 05:32:45,15.08838364,0.0001463,53.2165,140.7205,86.5681,273.5478,2.5638e-05,1.2e-06,0.0,0 STARLINK-5168,1 54071U 22136W   24123.23107778  .00000120  00000-0  25638-4 0  9999,2 54071  53.2165 140.7205 0001463  86.5681 273.5478 15.08838364 85205,6917.885,95.438,540.762,538.738,0.0
54071.0,STARLINK-5168,PAYLOAD,2024-05-02 08:43:31,15.08839961,0.0001436,53.2161,140.1254,85.6385,274.4771,1.894e-05,1.3e-07,0.0,0 STARLINK-5168,1 54071U 22136W   24123.36355667  .00000013  00000-0  18940-4 0  9994,2 54071  53.2161 140.1254 0001436  85.6385 274.4771 15.08839961 84748,6917.881,95.438,540.739,538.752,0.0
54071.0,STARLINK-5168,PAYLOAD,2024-05-03 08:34:17,15.08847943,0.0001403,53.2158,135.6645,85.6417,274.4735,7.5351e-05,9.12e-06,0.0,0 STARLINK-5168,1 54071U 22136W   24124.35714857  .00000912  00000-0  75351-4 0  9991,2 54071  53.2158 135.6645 0001403  85.6417 274.4735 15.08847943 85376,6917.856,95.437,540.692,538.751,0.0
54071.0,STARLINK-5168,PAYLOAD,2024-05-03 18:06:36,15.08840223,0.0001384,53.2157,133.8806,84.502,275.613,3.2708e-05,2.33e-06,0.0,0 STARLINK-5168,1 54071U 22136W   24124.75459372  .00000233  00000-0  32708-4 0  9998,2 54071  53.2157 133.8806 0001384  84.5020 275.6130 15.08840223 85433,6917.88,95.438,540.702,538.787,0.0
54071.0,STARLINK-5168,PAYLOAD,2024-05-04 05:14:19,15.08828755,0.0001418,53.2161,131.7989,86.1962,273.9192,-2.1032e-05,-6.23e-06,0.0,0 STARLINK-5168,1 54071U 22136W   24125.21828428 -.00000623  00000-0 -21032-4 0  9995,2 54071  53.2161 131.7989 0001418  86.1962 273.9192 15.08828755 85501,6917.915,95.438,540.761,538.799,0.0
54071.0,STARLINK-5168,PAYLOAD,2024-05-04 17:57:24,15.08835237,0.000139,53.2159,129.4194,92.3525,267.7626,1.2098e-05,-9.5e-07,0.0,0 STARLINK-5168,1 54071U 22136W   24125.74820138 -.00000095  00000-0  12098-4 0  9997,2 54071  53.2159 129.4194 0001390  92.3525 267.7626 15.08835237 85587,6917.895,95.438,540.722,538.798,0.0
54071.0,STARLINK-5168,PAYLOAD,2024-05-05 09:51:15,15.08841944,0.0001302,53.2167,126.4456,91.4233,268.6908,2.314e-05,8e-07,0.0,0 STARLINK-5168,1 54071U 22136W   24126.41059757  .00000080  00000-0  23140-4 0  9996,2 54071  53.2167 126.4456 0001302  91.4233 268.6908 15.08841944 85207,6917.874,95.437,540.64,538.839,0.0
54071.0,STARLINK-5168,PAYLOAD,2024-05-06 06:31:16,15.08841937,0.0001327,53.2162,122.5803,92.2767,267.8377,0.0001771,2.532e-05,0.0,0 STARLINK-5168,1 54071U 22136W   24127.27171524  .00002532  00000-0  17710-3 0  9997,2 54071  53.2162 122.5803 0001327  92.2767 267.8377 15.08841937 85330,6917.874,95.437,540.657,538.821,0.0
54071.0,STARLINK-5168,PAYLOAD,2024-05-06 16:03:35,15.08842423,0.0001324,53.216,120.7959,91.3758,268.7385,0.00013883,1.922e-05,0.0,0 STARLINK-5168,1 54071U 22136W   24127.66915652  .00001922  00000-0  13883-3 0  9997,2 54071  53.2160 120.7959 0001324  91.3758 268.7385 15.08842423 85876,6917.873,95.437,540.654,538.822,0.0
54071.0,STARLINK-5168,PAYLOAD,2024-05-07 06:22:03,15.0884684,0.000139,53.2168,118.1199,92.3888,267.7263,0.00011866,1.601e-05,0.0,0 STARLINK-5168,1 54071U 22136W   24128.26531382  .00001601  00000-0  11866-3 0  9991,2 54071  53.2168 118.1199 0001390  92.3888 267.7263 15.08846840 85487,6917.859,95.437,540.686,538.763,0.0
54071.0,STARLINK-5168,PAYLOAD,2024-05-07 15:54:22,15.08840789,0.0001382,53.2164,116.336,92.5845,267.5306,4.2568e-05,3.9e-06,0.0,0 STARLINK-5168,1 54071U 22136W   24128.66275844  .00000390  00000-0  42568-4 0  9991,2 54071  53.2164 116.3360 0001382  92.5845 267.5306 15.08840789 86022,6917.878,95.438,540.699,538.787,0.0
54071.0,STARLINK-5168,PAYLOAD,2024-05-08 04:37:28,15.08830613,0.0001443,53.2171,113.9576,93.8191,266.2966,-8.1389e-05,-1.583e-05,0.0,0 STARLINK-5168,1 54071U 22136W   24129.19268959 -.00001583  00000-0 -81389-4 0  9990,2 54071  53.2171 113.9576 0001443  93.8191 266.2966 15.08830613 86100,6917.909,95.438,540.772,538.776,0.0
54071.0,STARLINK-5168,PAYLOAD,2024-05-08 09:23:37,15.08839995,0.0001696,53.2169,113.0651,97.8334,262.2851,-0.00015576,-2.766e-05,0.0,0 STARLINK-5168,1 54071U 22136W   24129.39140594 -.00002766  00000-0 -15576-3 0  9994,2 54071  53.2169 113.0651 0001696  97.8334 262.2851 15.08839995 86139,6917.88,95.438,540.919,538.572,0.0
54071.0,STARLINK-5168,PAYLOAD,2024-05-08 15:45:09,15.08836715,0.0001491,53.2177,111.8777,97.789,262.3272,-8.5693e-06,-4.24e-06,0.0,0 STARLINK-5168,1 54071U 22136W   24129.65636446 -.00000424  00000-0 -85693-5 0  9997,2 54071  53.2177 111.8777 0001491  97.7890 262.3272 15.08836715 85697,6917.89,95.438,540.787,538.724,0.0
54071.0,STARLINK-5168,PAYLOAD,2024-05-09 04:28:14,15.08847097,0.0001494,53.2179,109.4974,101.3037,258.8123,8.3239e-05,1.037e-05,0.0,0 STARLINK-5168,1 54071U 22136W   24130.18627487  .00001037  00000-0  83239-4 0  9994,2 54071  53.2179 109.4974 0001494 101.3037 258.8123 15.08847097 86252,6917.859,95.437,540.757,538.69,0.0
54071.0,STARLINK-5168,PAYLOAD,2024-05-09 06:03:37,15.08848331,0.0001433,53.2174,109.2001,97.6863,262.4292,8.2967e-05,1.033e-05,0.0,0 STARLINK-5168,1 54071U 22136W   24130.25251391  .00001033  00000-0  82967-4 0  9992,2 54071  53.2174 109.2001 0001433  97.6863 262.4292 15.08848331 85780,6917.855,95.437,540.711,538.729,0.0
54071.0,STARLINK-5168,PAYLOAD,2024-05-09 15:35:56,15.08842087,0.0001438,53.2179,107.4155,95.7856,264.33,6.4238e-05,7.35e-06,0.0,0 STARLINK-5168,1 54071U 22136W   24130.64995834  .00000735  00000-0  64238-4 0  9991,2 54071  53.2179 107.4155 0001438  95.7856 264.3300 15.08842087 86325,6917.874,95.437,540.734,538.744,0.0
54071.0,STARLINK-5168,PAYLOAD,2024-05-10 04:19:01,15.08837365,0.0001269,53.2162,105.0364,97.0565,263.0571,0.00010255,1.344e-05,0.0,0 STARLINK-5168,1 54071U 22136W   24131.17988285  .00001344  00000-0  10255-3 0  9998,2 54071  53.2162 105.0364 0001269  97.0565 263.0571 15.08837365 86405,6917.888,95.438,540.631,538.876,0.0
54071.0,STARLINK-5168,PAYLOAD,2024-05-10 05:54:24,15.08839715,0.0001348,53.2169,104.7389,96.0502,264.0644,0.00012611,1.72e-05,0.0,0 STARLINK-5168,1 54071U 22136W   24131.24612119  .00001720  00000-0  12611-3 0  9992,2 54071  53.2169 104.7389 0001348  96.0502 264.0644 15.08839715 85933,6917.881,95.438,540.679,538.814,0.0
54071.0,STARLINK-5168,PAYLOAD,2024-05-10 21:48:16,15.08837162,0.0001304,53.217,101.7628,91.5291,268.585,1.2837e-05,-8.4e-07,0.0,0 STARLINK-5168,1 54071U 22136W   24131.90852711 -.00000084  00000-0  12837-4 0  9993,2 54071  53.2170 101.7628 0001304  91.5291 268.5850 15.08837162 86039,6917.889,95.438,540.656,538.852,0.0
54071.0,STARLINK-5168,PAYLOAD,2024-05-11 04:09:48,15.08849849,0.000162,53.2165,100.578,86.5369,273.5808,5.0002e-05,5.08e-06,0.0,0 STARLINK-5168,1 54071U 22136W   24132.17348058  .00000508  00000-0  50002-4 0  9993,2 54071  53.2165 100.5780 0001620  86.5369 273.5808 15.08849849 86551,6917.85,95.437,540.836,538.595,0.0
54071.0,STARLINK-5168,PAYLOAD,2024-05-11 21:39:02,15.08846023,0.0001779,53.2165,97.3014,105.7668,254.352,5.3079e-05,5.57e-06,0.0,0 STARLINK-5168,1 54071U 22136W   24132.90210824  .00000557  00000-0  53079-4 0  9994,2 54071  53.2165  97.3014 0001779 105.7668 254.3520 15.08846023 86183,6917.862,95.437,540.958,538.496,0.0
54071.0,STARLINK-5168,PAYLOAD,2024-05-12 04:00:39,15.08754105,0.0001241,53.2163,96.1132,87.4526,272.6608,-0.0011768,-0.00018924,0.0,0 STARLINK-5168,1 54071U 22136W   24133.16712499 -.00018924  00000-0 -11768-2 0  9994,2 54071  53.2163  96.1132 0001241  87.4526 272.6608 15.08754105 86709,6918.143,95.443,540.866,539.149,0.0
54071.0,STARLINK-5168,PAYLOAD,2024-05-12 07:11:26,15.08751307,0.0001398,53.217,95.5193,86.0325,274.0827,-0.001145,-0.0001842,0.0,0 STARLINK-5168,1 54071U 22136W   24133.29961287 -.00018420  00000-0 -11450-2 0  9998,2 54071  53.2170  95.5193 0001398  86.0325 274.0827 15.08751307 86241,6918.152,95.443,540.984,539.049,0.0
54071.0,STARLINK-5168,PAYLOAD,2024-05-12 15:08:21,15.08783352,7.41e-05,53.2175,94.035,82.4757,277.6319,-0.00055313,-9.066e-05,0.0,0 STARLINK-5168,1 54071U 22136W   24133.63080587 -.00009066  00000-0 -55313-3 0  9994,2 54071  53.2175  94.0350 0000741  82.4757 277.6319 15.08783352 86773,6918.054,95.441,540.431,539.406,0.0
54071.0,STARLINK-5168,PAYLOAD,2024-05-13 03:51:26,15.08816385,0.0001553,53.2171,91.654,91.7776,268.3394,0.00013668,1.887e-05,0.0,0 STARLINK-5168,1 54071U 22136W   24134.16072329  .00001887  00000-0  13668-3 0  9996,2 54071  53.2171  91.6540 0001553  91.7776 268.3394 15.08816385 86851,6917.953,95.439,540.892,538.743,0.0
54071.0,STARLINK-5168,PAYLOAD,2024-05-13 07:02:13,15.08817113,0.0001515,53.2171,91.0591,92.5711,267.5454,0.00021725,3.169e-05,0.0,0 STARLINK-5168,1 54071U 22136W   24134.29320620  .00003169  00000-0  21725-3 0  9998,2 54071  53.2171  91.0591 0001515  92.5711 267.5454 15.08817113 86394,6917.95,95.439,540.863,538.767,0.0
54071.0,STARLINK-5168,PAYLOAD,2024-05-14 13:14:32,15.08859839,0.0001339,53.2172,85.4107,90.7405,269.374,0.0010557,0.00016562,0.0,0 STARLINK-5168,1 54071U 22136W   24135.55176275  .00016562  00000-0  10557-2 0  9994,2 54071  53.2172  85.4107 0001339  90.7405 269.3740 15.08859839 86589,6917.82,95.436,540.611,538.758,0.0
54071.0,STARLINK-5168,PAYLOAD,2024-05-15 03:32:57,15.08926957,0.0001192,53.2162,82.734,93.9041,266.2088,0.0019088,0.00030294,0.0,0 STARLINK-5168,1 54071U 22136W   24136.14788903  .00030294  00000-0  19088-2 0  9993,2 54071  53.2162  82.7340 0001192  93.9041 266.2088 15.08926957 87156,6917.615,95.432,540.304,538.655,0.0
54071.0,STARLINK-5168,PAYLOAD,2024-05-15 21:02:11,15.08871412,9.89e-05,53.2156,79.4585,25.2743,334.8297,0.0010997,0.00017272,0.0,0 STARLINK-5168,1 54071U 22136W   24136.87652358  .00017272  00000-0  10997-2 0  9998,2 54071  53.2156  79.4585 0000989  25.2743 334.8297 15.08871412 87264,6917.784,95.436,540.334,538.965,0.0
